STARLINK-1506           
1 45747U 20038T   26068.66028804  .00025380  00000+0  97997-3 0  9997
2 45747  53.0733 202.5028 0002514 227.7836 132.2949 15.26134655316688
STARLINK-36524          
1 67452U 26008H   26068.86228837  .00042245  00000+0  15351-2 0  9999
2 67452  43.0011 204.6815 0002449 288.5037  71.5549 15.27595859  9593
